NORAD_CAT_ID,OBJECT_NAME,OBJECT_TYPE,EPOCH,MEAN_MOTION,ECCENTRICITY,INCLINATION,RA_OF_ASC_NODE,ARG_OF_PERICENTER,MEAN_ANOMALY,BSTAR,MEAN_MOTION_DOT,MEAN_MOTION_DDOT,TLE_LINE0,TLE_LINE1,TLE_LINE2,SEMIMAJOR_AXIS,PERIOD,APOGEE,PERIGEE,DECAYED
56487.0,STARLINK-6196,PAYLOAD,2024-06-18 05:11:47,14.99138713,0.0003354,69.999,251.5752,265.0588,95.0188,0.00011286,1.282e-05,0.0,0 STARLINK-6196,1 56487U 23064AR  24170.21652121  .00001282  00000-0  11286-3 0  9993,2 56487  69.9990 251.5752 0003354 265.0588  95.0188 14.99138713 62308,6947.693,96.055,571.888,567.228,0.0
56487.0,STARLINK-6196,PAYLOAD,2024-06-18 13:12:11,14.99148309,0.0003424,69.9987,250.7312,266.3444,93.7324,0.00010271,1.158e-05,0.0,0 STARLINK-6196,1 56487U 23064AR  24170.55013478  .00001158  00000-0  10271-3 0  9991,2 56487  69.9987 250.7312 0003424 266.3444  93.7324 14.99148309 62354,6947.663,96.055,571.907,567.15,0.0
56487.0,STARLINK-6196,PAYLOAD,2024-06-18 14:48:16,14.99161297,0.0003308,69.999,250.5625,263.8625,96.2158,-0.00016395,-2.092e-05,0.0,0 STARLINK-6196,1 56487U 23064AR  24170.61685479 -.00002092  00000-0 -16395-3 0  9997,2 56487  69.9990 250.5625 0003308 263.8625  96.2158 14.99161297 62003,6947.623,96.054,571.787,567.19,0.0
56487.0,STARLINK-6196,PAYLOAD,2024-06-19 05:13:01,14.99132195,0.0003434,69.9992,249.0467,268.7,91.3766,0.00019643,2.3e-05,0.0,0 STARLINK-6196,1 56487U 23064AR  24171.21738222  .00002300  00000-0  19643-3 0  9998,2 56487  69.9992 249.0467 0003434 268.7000  91.3766 14.99132195 62458,6947.713,96.056,571.964,567.192,0.0
56487.0,STARLINK-6196,PAYLOAD,2024-06-19 14:49:31,14.99137402,0.0003214,69.9989,248.0369,267.7052,92.374,0.00012314,1.407e-05,0.0,0 STARLINK-6196,1 56487U 23064AR  24171.61772595  .00001407  00000-0  12314-3 0  9998,2 56487  69.9989 248.0369 0003214 267.7052  92.3740 14.99137402 62152,6947.697,96.055,571.795,567.329,0.0
56487.0,STARLINK-6196,PAYLOAD,2024-06-20 05:14:16,14.99137481,0.0003282,69.9993,246.5204,272.2378,87.8405,5.8532e-05,6.19e-06,0.0,0 STARLINK-6196,1 56487U 23064AR  24172.21824400  .00000619  00000-0  58532-4 0  9995,2 56487  69.9993 246.5204 0003282 272.2378  87.8405 14.99137481 62609,6947.697,96.055,571.842,567.282,0.0
56487.0,STARLINK-6196,PAYLOAD,2024-06-20 14:50:45,14.99145899,0.0001986,69.9988,245.5106,241.5745,118.5215,-0.00010233,-1.34e-05,0.0,0 STARLINK-6196,1 56487U 23064AR  24172.61858630 -.00001340  00000-0 -10233-3 0  9990,2 56487  69.9988 245.5106 0001986 241.5745 118.5215 14.99145899 62309,6947.671,96.055,570.916,568.156,0.0
56487.0,STARLINK-6196,PAYLOAD,2024-06-21 05:15:30,14.99140416,0.0003309,69.9987,243.9946,269.8143,90.2638,5.9612e-05,6.33e-06,0.0,0 STARLINK-6196,1 56487U 23064AR  24173.21910144  .00000633  00000-0  59612-4 0  9993,2 56487  69.9987 243.9946 0003309 269.8143  90.2638 14.99140416 62752,6947.688,96.055,571.852,567.254,0.0
56487.0,STARLINK-6196,PAYLOAD,2024-06-21 13:15:54,14.9914315,0.0003286,69.9988,243.1525,269.6692,90.4091,8.6207e-05,9.57e-06,0.0,0 STARLINK-6196,1 56487U 23064AR  24173.55271895  .00000957  00000-0  86207-4 0  9992,2 56487  69.9988 243.1525 0003286 269.6692  90.4091 14.99143150 62448,6947.679,96.055,571.827,567.261,0.0
56487.0,STARLINK-6196,PAYLOAD,2024-06-21 14:51:59,14.99143733,0.0003288,69.9988,242.984,269.7435,90.3348,9.098e-05,1.015e-05,0.0,0 STARLINK-6196,1 56487U 23064AR  24173.61944234  .00001015  00000-0  90980-4 0  9992,2 56487  69.9988 242.9840 0003288 269.7435  90.3348 14.99143733 62455,6947.678,96.055,571.827,567.258,0.0
56487.0,STARLINK-6196,PAYLOAD,2024-06-22 13:17:09,14.99137998,0.0003194,69.999,240.6262,269.0874,90.9919,6.5805e-05,7.08e-06,0.0,0 STARLINK-6196,1 56487U 23064AR  24174.55358277  .00000708  00000-0  65805-4 0  9998,2 56487  69.9990 240.6262 0003194 269.0874  90.9919 14.99137998 62958,6947.695,96.055,571.779,567.341,0.0
56487.0,STARLINK-6196,PAYLOAD,2024-06-22 14:53:14,14.99137979,0.0003204,69.999,240.4576,269.4063,90.673,6.3697e-05,6.82e-06,0.0,0 STARLINK-6196,1 56487U 23064AR  24174.62030687  .00000682  00000-0  63697-4 0  9996,2 56487  69.9990 240.4576 0003204 269.4063  90.6730 14.99137979 62609,6947.695,96.055,571.786,567.334,0.0
56487.0,STARLINK-6196,PAYLOAD,2024-06-23 13:18:23,14.99140744,0.0003197,69.999,238.0991,268.5431,91.5362,1.7878e-05,1.24e-06,0.0,0 STARLINK-6196,1 56487U 23064AR  24175.55444113  .00000124  00000-0  17878-4 0  9993,2 56487  69.9990 238.0991 0003197 268.5431  91.5362 14.99140744 63104,6947.687,96.055,571.773,567.331,0.0
56487.0,STARLINK-6196,PAYLOAD,2024-06-24 13:19:37,14.99144098,0.0003334,69.9988,235.5724,269.2563,90.8214,8.8877e-05,9.89e-06,0.0,0 STARLINK-6196,1 56487U 23064AR  24176.55529500  .00000989  00000-0  88877-4 0  9994,2 56487  69.9988 235.5724 0003334 269.2563  90.8214 14.99144098 63254,6947.676,96.055,571.858,567.225,0.0
56487.0,STARLINK-6196,PAYLOAD,2024-06-25 05:20:27,14.99135782,0.0003159,69.9992,233.8883,263.9782,96.1018,1.4524e-05,8.3e-07,0.0,0 STARLINK-6196,1 56487U 23064AR  24177.22254156  .00000083  00000-0  14524-4 0  9994,2 56487  69.9992 233.8883 0003159 263.9782  96.1018 14.99135782 63357,6947.702,96.055,571.762,567.372,0.0
56487.0,STARLINK-6196,PAYLOAD,2024-06-25 13:20:52,14.99134734,0.0003193,69.9992,233.0461,263.6615,96.4181,-3.8023e-06,-1.4e-06,0.0,0 STARLINK-6196,1 56487U 23064AR  24177.55616323 -.00000140  00000-0 -38023-5 0  9995,2 56487  69.9992 233.0461 0003193 263.6615  96.4181 14.99134734 63047,6947.705,96.055,571.789,567.352,0.0
56487.0,STARLINK-6196,PAYLOAD,2024-06-26 05:21:41,14.99146298,0.0003301,69.9991,231.3611,263.8377,96.2406,4.9077e-05,5.04e-06,0.0,0 STARLINK-6196,1 56487U 23064AR  24178.22339341  .00000504  00000-0  49077-4 0  9994,2 56487  69.9991 231.3611 0003301 263.8377  96.2406 14.99146298 63509,6947.67,96.055,571.828,567.241,0.0
56487.0,STARLINK-6196,PAYLOAD,2024-06-26 11:46:00,14.99146211,0.0003343,69.999,230.6872,264.9663,95.1115,4.4757e-05,4.52e-06,0.0,0 STARLINK-6196,1 56487U 23064AR  24178.49028867  .00000452  00000-0  44757-4 0  9993,2 56487  69.9990 230.6872 0003343 264.9663  95.1115 14.99146211 63189,6947.67,96.055,571.858,567.212,0.0
56487.0,STARLINK-6196,PAYLOAD,2024-06-27 05:22:57,14.99134882,0.0002958,69.9981,228.8328,237.9949,122.0923,7.8927e-05,8.68e-06,0.0,0 STARLINK-6196,1 56487U 23064AR  24179.22427397  .00000868  00000-0  78927-4 0  9993,2 56487  69.9981 228.8328 0002958 237.9949 122.0923 14.99134882 63652,6947.705,96.055,571.625,567.515,0.0
56487.0,STARLINK-6196,PAYLOAD,2024-06-27 13:23:22,14.99138151,0.0003321,69.9986,227.9912,270.0353,90.0426,0.00014686,1.696e-05,0.0,0 STARLINK-6196,1 56487U 23064AR  24179.55789448  .00001696  00000-0  14686-3 0  9998,2 56487  69.9986 227.9912 0003321 270.0353  90.0426 14.99138151 63349,6947.695,96.055,571.867,567.253,0.0
56487.0,STARLINK-6196,PAYLOAD,2024-06-28 05:24:11,14.99149598,0.0003307,69.9987,226.3067,270.5304,89.5477,0.00017435,2.032e-05,0.0,0 STARLINK-6196,1 56487U 23064AR  24180.22512741  .00002032  00000-0  17435-3 0  9994,2 56487  69.9987 226.3067 0003307 270.5304  89.5477 14.99149598 63806,6947.66,96.054,571.822,567.227,0.0
56487.0,STARLINK-6196,PAYLOAD,2024-06-28 13:24:35,14.99157762,0.0003181,70.0,225.4655,268.9558,91.1237,0.00055814,6.717e-05,0.0,0 STARLINK-6196,1 56487U 23064AR  24180.55874898  .00006717  00000-0  55814-3 0  9991,2 56487  70.0000 225.4655 0003181 268.9558  91.1237 14.99157762 63490,6947.634,96.054,571.709,567.289,0.0
56487.0,STARLINK-6196,PAYLOAD,2024-06-29 11:49:44,14.99158853,0.0002925,70.0006,223.1083,267.4955,92.587,0.00020696,2.43e-05,0.0,0 STARLINK-6196,1 56487U 23064AR  24181.49287817  .00002430  00000-0  20696-3 0  9992,2 56487  70.0006 223.1083 0002925 267.4955  92.5870 14.99158853 63991,6947.631,96.054,571.528,567.464,0.0
56487.0,STARLINK-6196,PAYLOAD,2024-06-29 13:25:49,14.99160128,0.0002988,70.0003,222.9386,271.1155,88.9662,0.00021914,2.579e-05,0.0,0 STARLINK-6196,1 56487U 23064AR  24181.55960078  .00002579  00000-0  21914-3 0  9994,2 56487  70.0003 222.9386 0002988 271.1155  88.9662 14.99160128 63642,6947.627,96.054,571.568,567.416,0.0
56487.0,STARLINK-6196,PAYLOAD,2024-06-29 19:50:09,14.99151363,0.0002879,70.0006,222.2636,270.1152,89.9677,-5.8939e-06,-1.66e-06,0.0,0 STARLINK-6196,1 56487U 23064AR  24181.82649855 -.00000166  00000-0 -58939-5 0  9992,2 56487  70.0006 222.2636 0002879 270.1152  89.9677 14.99151363 64044,6947.654,96.054,571.519,567.519,0.0
56487.0,STARLINK-6196,PAYLOAD,2024-06-30 05:26:39,14.99146197,0.0002829,69.9991,221.2544,264.6815,95.4022,-9.0453e-05,-1.196e-05,0.0,0 STARLINK-6196,1 56487U 23064AR  24182.22684796 -.00001196  00000-0 -90453-4 0  9990,2 56487  69.9991 221.2544 0002829 264.6815  95.4022 14.99146197 64102,6947.67,96.055,571.501,567.57,0.0
56487.0,STARLINK-6196,PAYLOAD,2024-06-30 13:27:04,14.99132761,0.0002788,69.9995,220.4123,260.7077,99.3768,6.6194e-05,7.13e-06,0.0,0 STARLINK-6196,1 56487U 23064AR  24182.56047071  .00000713  00000-0  66194-4 0  9993,2 56487  69.9995 220.4123 0002788 260.7077  99.3768 14.99132761 63797,6947.712,96.056,571.514,567.64,0.0
56487.0,STARLINK-6196,PAYLOAD,2024-07-01 05:27:53,14.99146603,0.000286,69.9991,218.7277,263.1541,96.9293,-4.3465e-05,-6.23e-06,0.0,0 STARLINK-6196,1 56487U 23064AR  24183.22769999 -.00000623  00000-0 -43465-4 0  9995,2 56487  69.9991 218.7277 0002860 263.1541  96.9293 14.99146603 64255,6947.669,96.055,571.521,567.547,0.0
56487.0,STARLINK-6196,PAYLOAD,2024-07-01 11:52:13,14.99146163,0.0002904,69.999,218.0538,264.177,95.9059,-4.8683e-05,-6.87e-06,0.0,0 STARLINK-6196,1 56487U 23064AR  24183.49459499 -.00000687  00000-0 -48683-4 0  9992,2 56487  69.9990 218.0538 0002904 264.1770  95.9059 14.99146163 63935,6947.67,96.055,571.553,567.518,0.0
56487.0,STARLINK-6196,PAYLOAD,2024-07-01 19:52:37,14.99146177,0.0003186,69.9983,217.2109,264.896,95.1836,-4.633e-05,-6.58e-06,0.0,0 STARLINK-6196,1 56487U 23064AR  24183.82821281 -.00000658  00000-0 -46330-4 0  9996,2 56487  69.9983 217.2109 0003186 264.8960  95.1836 14.99146177 63988,6947.67,96.055,571.749,567.322,0.0
